NORAD_CAT_ID,OBJECT_NAME,OBJECT_TYPE,EPOCH,MEAN_MOTION,ECCENTRICITY,INCLINATION,RA_OF_ASC_NODE,ARG_OF_PERICENTER,MEAN_ANOMALY,BSTAR,MEAN_MOTION_DOT,MEAN_MOTION_DDOT,TLE_LINE0,TLE_LINE1,TLE_LINE2,SEMIMAJOR_AXIS,PERIOD,APOGEE,PERIGEE,DECAYED
49142.0,STARLINK-3042,PAYLOAD,2023-12-22 14:31:04,14.98331417,0.0002862,70.0009,131.9272,257.3289,102.755,0.00010801,1.196e-05,0.0,0 STARLINK-3042,1 49142U 21082N   23356.60491795  .00001196  00000-0  10801-3 0  9993,2 49142  70.0009 131.9272 0002862 257.3289 102.7550 14.98331417125927,6950.189,96.107,574.043,570.064,0.0
49142.0,STARLINK-3042,PAYLOAD,2023-12-22 19:19:28,14.9833356,0.0002851,70.0009,131.4221,259.5271,100.5567,0.00013094,1.47e-05,0.0,0 STARLINK-3042,1 49142U 21082N   23356.80519618  .00001470  00000-0  13094-3 0  9992,2 49142  70.0009 131.4221 0002851 259.5271 100.5567 14.98333560125957,6950.182,96.107,574.028,570.065,0.0
49142.0,STARLINK-3042,PAYLOAD,2023-12-23 11:20:49,14.9833612,0.0002603,70.0012,129.7381,262.3412,97.7451,-6.4123e-05,-8.58e-06,0.0,0 STARLINK-3042,1 49142U 21082N   23357.47279899 -.00000858  00000-0 -64123-4 0  9991,2 49142  70.0012 129.7381 0002603 262.3412  97.7451 14.98336120126058,6950.174,96.107,573.848,570.23,0.0
49142.0,STARLINK-3042,PAYLOAD,2023-12-23 14:33:06,14.98330258,0.0002777,70.0009,129.4014,260.8589,99.2256,1.7232e-05,1.13e-06,0.0,0 STARLINK-3042,1 49142U 21082N   23357.60632011  .00000113  00000-0  17232-4 0  9996,2 49142  70.0009 129.4014 0002777 260.8589  99.2256 14.98330258126072,6950.192,96.107,573.987,570.127,0.0
49142.0,STARLINK-3042,PAYLOAD,2023-12-23 19:21:29,14.98338168,0.0003257,69.9998,128.8934,273.4172,86.6614,6.9946e-05,7.42e-06,0.0,0 STARLINK-3042,1 49142U 21082N   23357.80659318  .00000742  00000-0  69946-4 0  9994,2 49142  69.9998 128.8934 0003257 273.4172  86.6614 14.98338168126102,6950.168,96.106,574.296,569.769,0.0
49142.0,STARLINK-3042,PAYLOAD,2023-12-24 11:22:50,14.98335095,0.0003254,69.999,127.2111,269.5801,90.4985,2.504e-05,2.06e-06,0.0,0 STARLINK-3042,1 49142U 21082N   23358.47419526  .00000206  00000-0  25040-4 0  9995,2 49142  69.9990 127.2111 0003254 269.5801  90.4985 14.98335095126207,6950.177,96.107,574.304,569.781,0.0
49142.0,STARLINK-3042,PAYLOAD,2023-12-24 14:35:06,14.98336676,0.0003141,69.9999,126.8758,268.347,91.7329,5.119e-05,5.18e-06,0.0,0 STARLINK-3042,1 49142U 21082N   23358.60771320  .00000518  00000-0  51190-4 0  9994,2 49142  69.9999 126.8758 0003141 268.3470  91.7329 14.98336676126226,6950.172,96.107,574.22,569.854,0.0
49142.0,STARLINK-3042,PAYLOAD,2023-12-24 17:47:22,14.98336675,0.0002906,70.0005,126.5393,264.3143,95.7684,7.5138e-05,8.04e-06,0.0,0 STARLINK-3042,1 49142U 21082N   23358.74123234  .00000804  00000-0  75138-4 0  9990,2 49142  70.0005 126.5393 0002906 264.3143  95.7684 14.98336675126249,6950.172,96.107,574.057,570.018,0.0
49142.0,STARLINK-3042,PAYLOAD,2023-12-25 11:24:51,14.98329151,0.0003036,70.0004,124.6882,267.9554,92.1257,7.8419e-05,8.43e-06,0.0,0 STARLINK-3042,1 49142U 21082N   23359.47559777  .00000843  00000-0  78419-4 0  9994,2 49142  70.0004 124.6882 0003036 267.9554  92.1257 14.98329151126350,6950.196,96.107,574.171,569.95,0.0
49142.0,STARLINK-3042,PAYLOAD,2023-12-25 14:37:07,14.9832936,0.0002981,70.0001,124.3512,264.8398,95.2421,7.2933e-05,7.77e-06,0.0,0 STARLINK-3042,1 49142U 21082N   23359.60911722  .00000777  00000-0  72933-4 0  9992,2 49142  70.0001 124.3512 0002981 264.8398  95.2421 14.98329360126375,6950.195,96.107,574.132,569.988,0.0
49142.0,STARLINK-3042,PAYLOAD,2023-12-25 17:49:23,14.98333046,0.0002947,69.9999,124.0141,264.3333,95.749,9.6983e-05,1.064e-05,0.0,0 STARLINK-3042,1 49142U 21082N   23359.74263388  .00001064  00000-0  96983-4 0  9996,2 49142  69.9999 124.0141 0002947 264.3333  95.7490 14.98333046126398,6950.183,96.107,574.097,570.0,0.0
49142.0,STARLINK-3042,PAYLOAD,2023-12-26 11:26:52,14.9832682,0.0002565,70.0013,122.1645,248.408,111.6806,-8.7715e-06,-1.98e-06,0.0,0 STARLINK-3042,1 49142U 21082N   23360.47699990 -.00000198  00000-0 -87715-5 0  9993,2 49142  70.0013 122.1645 0002565 248.4080 111.6806 14.98326820126508,6950.203,96.107,573.85,570.285,0.0
49142.0,STARLINK-3042,PAYLOAD,2023-12-26 14:39:09,14.98326429,0.0002721,70.0012,121.8281,253.3755,106.7105,-2.3515e-05,-3.73e-06,0.0,0 STARLINK-3042,1 49142U 21082N   23360.61052134 -.00000373  00000-0 -23515-4 0  9994,2 49142  70.0012 121.8281 0002721 253.3755 106.7105 14.98326429126521,6950.204,96.107,573.96,570.178,0.0
49142.0,STARLINK-3042,PAYLOAD,2023-12-26 17:51:24,14.98329416,0.0002827,70.0005,121.4901,259.3276,100.7564,-5.8388e-06,-1.63e-06,0.0,0 STARLINK-3042,1 49142U 21082N   23360.74403920 -.00000163  00000-0 -58388-5 0  9995,2 49142  70.0005 121.4901 0002827 259.3276 100.7564 14.98329416126543,6950.195,96.107,574.025,570.095,0.0
49142.0,STARLINK-3042,PAYLOAD,2023-12-27 11:28:53,14.98332553,0.0002796,70.0003,119.6382,262.4762,97.6079,7.5882e-05,8.13e-06,0.0,0 STARLINK-3042,1 49142U 21082N   23361.47839546  .00000813  00000-0  75882-4 0  9990,2 49142  70.0003 119.6382 0002796 262.4762  97.6079 14.98332553126656,6950.185,96.107,573.993,570.107,0.0
49142.0,STARLINK-3042,PAYLOAD,2023-12-27 14:41:09,14.98333174,0.0002699,70.0006,119.3022,258.8523,101.2332,0.00011034,1.224e-05,0.0,0 STARLINK-3042,1 49142U 21082N   23361.61191440  .00001224  00000-0  11034-3 0  9995,2 49142  70.0006 119.3022 0002699 258.8523 101.2332 14.98333174126679,6950.183,96.107,573.924,570.172,0.0
49142.0,STARLINK-3042,PAYLOAD,2023-12-27 17:53:25,14.98335704,0.0002763,70.0003,118.9652,262.3949,97.6896,0.00012436,1.391e-05,0.0,0 STARLINK-3042,1 49142U 21082N   23361.74543261  .00001391  00000-0  12436-3 0  9993,2 49142  70.0003 118.9652 0002763 262.3949  97.6896 14.98335704126690,6950.175,96.107,573.961,570.12,0.0
49142.0,STARLINK-3042,PAYLOAD,2023-12-28 11:30:54,14.98327923,0.0002685,70.0008,117.1131,262.9088,97.1766,8.3049e-05,8.98e-06,0.0,0 STARLINK-3042,1 49142U 21082N   23362.47979879  .00000898  00000-0  83049-4 0  9992,2 49142  70.0008 117.1131 0002685 262.9088  97.1766 14.98327923126809,6950.199,96.107,573.93,570.198,0.0
49142.0,STARLINK-3042,PAYLOAD,2023-12-28 14:43:10,14.983279,0.0002452,70.0011,116.7765,256.3434,103.7452,9.4888e-05,1.039e-05,0.0,0 STARLINK-3042,1 49142U 21082N   23362.61331914  .00001039  00000-0  94888-4 0  9991,2 49142  70.0011 116.7765 0002452 256.3434 103.7452 14.98327900126828,6950.199,96.107,573.769,570.36,0.0
49142.0,STARLINK-3042,PAYLOAD,2023-12-28 17:55:26,14.98328715,0.0002451,70.001,116.4399,257.5244,102.5641,0.00010162,1.12e-05,0.0,0 STARLINK-3042,1 49142U 21082N   23362.74683861  .00001120  00000-0  10162-3 0  9999,2 49142  70.0010 116.4399 0002451 257.5244 102.5641 14.98328715126842,6950.197,96.107,573.765,570.358,0.0
49142.0,STARLINK-3042,PAYLOAD,2023-12-29 11:32:55,14.98330414,0.0002635,70.0006,114.5881,266.2625,93.8233,1.9438e-05,1.39e-06,0.0,0 STARLINK-3042,1 49142U 21082N   23363.48119833  .00000139  00000-0  19438-4 0  9999,2 49142  70.0006 114.5881 0002635 266.2625  93.8233 14.98330414126956,6950.192,96.107,573.888,570.225,0.0
49142.0,STARLINK-3042,PAYLOAD,2023-12-29 14:45:11,14.9834644,0.0002479,70.0006,114.2516,261.9996,98.0882,-0.00024611,-3.029e-05,0.0,0 STARLINK-3042,1 49142U 21082N   23363.61471409 -.00003029  00000-0 -24611-3 0  9995,2 49142  70.0006 114.2516 0002479 261.9996  98.0882 14.98346440126972,6950.142,96.106,573.73,570.284,0.0
49142.0,STARLINK-3042,PAYLOAD,2023-12-29 17:57:27,14.98354696,0.0002441,70.0009,113.9151,263.6155,96.4726,-0.00035071,-4.278e-05,0.0,0 STARLINK-3042,1 49142U 21082N   23363.74822932 -.00004278  00000-0 -35071-3 0  9999,2 49142  70.0009 113.9151 0002441 263.6155  96.4726 14.98354696126994,6950.117,96.105,573.678,570.285,0.0
49142.0,STARLINK-3042,PAYLOAD,2023-12-30 13:11:04,14.98331832,0.0002651,70.0007,111.8957,265.1136,94.972,8.674e-05,9.42e-06,0.0,0 STARLINK-3042,1 49142U 21082N   23364.54935386  .00000942  00000-0  86740-4 0  9998,2 49142  70.0007 111.8957 0002651 265.1136  94.9720 14.98331832127111,6950.187,96.107,573.895,570.21,0.0
49142.0,STARLINK-3042,PAYLOAD,2023-12-30 14:47:12,14.98331892,0.0002688,70.0006,111.7272,266.0308,94.0544,8.1747e-05,8.83e-06,0.0,0 STARLINK-3042,1 49142U 21082N   23364.61611383  .00000883  00000-0  81747-4 0  9990,2 49142  70.0006 111.7272 0002688 266.0308  94.0544 14.98331892127122,6950.187,96.107,573.92,570.184,0.0
49142.0,STARLINK-3042,PAYLOAD,2023-12-30 16:23:20,14.98333852,0.0002623,70.0006,111.5587,264.7767,95.3093,9.4155e-05,1.031e-05,0.0,0 STARLINK-3042,1 49142U 21082N   23364.68287192  .00001031  00000-0  94155-4 0  9997,2 49142  70.0006 111.5587 0002623 264.7767  95.3093 14.98333852127134,6950.181,96.107,573.869,570.223,0.0
49142.0,STARLINK-3042,PAYLOAD,2023-12-31 11:36:57,14.98323687,0.0002704,70.0006,109.5396,263.7923,96.2929,-9.3822e-06,-2.05e-06,0.0,0 STARLINK-3042,1 49142U 21082N   23365.48400063 -.00000205  00000-0 -93822-5 0  9995,2 49142  70.0006 109.5396 0002704 263.7923  96.2929 14.98323687127258,6950.212,96.107,573.957,570.198,0.0
49142.0,STARLINK-3042,PAYLOAD,2023-12-31 16:25:21,14.98323853,0.000268,70.0006,109.0343,265.8156,94.2697,-1.7379e-05,-3e-06,0.0,0 STARLINK-3042,1 49142U 21082N   23365.68428112 -.00000300  00000-0 -17379-4 0  9990,2 49142  70.0006 109.0343 0002680 265.8156  94.2697 14.98323853127287,6950.212,96.107,573.94,570.214,0.0
49142.0,STARLINK-3042,PAYLOAD,2024-01-01 11:38:58,14.98333261,0.000311,69.9995,107.0131,270.3576,89.7227,2.3826e-05,1.91e-06,0.0,0 STARLINK-3042,1 49142U 21082N   24001.48539353  .00000191  00000-0  23826-4 0  9996,2 49142  69.9995 107.0131 0003110 270.3576  89.7227 14.98333261127406,6950.183,96.107,574.209,569.886,0.0
49142.0,STARLINK-3042,PAYLOAD,2024-01-01 14:51:13,14.98336948,0.000301,69.9997,106.6768,268.9374,91.144,7.1541e-05,7.61e-06,0.0,0 STARLINK-3042,1 49142U 21082N   24001.61890945  .00000761  00000-0  71541-4 0  9998,2 49142  69.9997 106.6768 0003010 268.9374  91.1440 14.98336948127428,6950.171,96.107,574.128,569.944,0.0
